ONEWEB-0228             
1 48780U 21045P   24297.48074099  .00000004  00000+0 -22711-4 0  9995
2 48780  87.9120  18.9414 0001940 101.0442 259.0907 13.15552074165219
